{
  "type": "FeatureCollection",
  "features": [
    {
      "type": "Feature",
      "properties": {
        "norad_id": 38091,
        "name": "BEIDOU-2 G5 (C05)",
        "group": "gnss",
        "lat": -2.5651798393166403,
        "lon": -53.736421030767346,
        "alt_km": 35734.112154311515,
        "timestamp": "2025-12-06T11:28:11.305585+00:00",
        "meta_object_name": "BEIDOU-2 G5 (C05)",
        "meta_object_id": "2012-008A",
        "meta_epoch": "2025-12-05T21:34:38.508384",
        "meta_mean_motion": 1.00273116,
        "meta_eccentricity": 0.00124802,
        "meta_inclination": 3.0913,
        "meta_ra_of_asc_node": 70.7296,
        "meta_arg_of_pericenter": 226.0355,
        "meta_mean_anomaly": 160.5592,
        "meta_ephemeris_type": 0,
        "meta_classification_type": "U",
        "meta_norad_cat_id": 38091,
        "meta_element_set_no": 999,
        "meta_rev_at_epoch": 5043,
        "meta_bstar": 0,
        "meta_mean_motion_dot": 6.4e-07,
        "meta_mean_motion_ddot": 0,
        "tle_line1": "1 38091U 12008A   25339.89905681  .00000064  00000+0  00000+0 0  9998",
        "tle_line2": "2 38091   3.0913  70.7296 0012480 226.0355 160.5592  1.00273116 50439"
      },
      "geometry": {
        "type": "Point",
        "coordinates": [
          -53.736421030767346,
          -2.5651798393166403
        ]
      }
    },
    {
      "type": "Feature",
      "properties": {
        "norad_id": 38250,
        "name": "BEIDOU-2 M3 (C11)",
        "group": "gnss",
        "lat": 30.9115917103502,
        "lon": -24.757889580499842,
        "alt_km": 21563.051231581074,
        "timestamp": "2025-12-06T11:28:11.305597+00:00",
        "meta_object_name": "BEIDOU-2 M3 (C11)",
        "meta_object_id": "2012-018A",
        "meta_epoch": "2025-12-04T06:32:53.001888",
        "meta_mean_motion": 1.86229694,
        "meta_eccentricity": 0.0024462,
        "meta_inclination": 55.9274,
        "meta_ra_of_asc_node": 311.4423,
        "meta_arg_of_pericenter": 273.73,
        "meta_mean_anomaly": 85.9745,
        "meta_ephemeris_type": 0,
        "meta_classification_type": "U",
        "meta_norad_cat_id": 38250,
        "meta_element_set_no": 999,
        "meta_rev_at_epoch": 9231,
        "meta_bstar": 0,
        "meta_mean_motion_dot": -6.8e-07,
        "meta_mean_motion_ddot": 0,
        "tle_line1": "1 38250U 12018A   25338.27283567 -.00000068  00000+0  00000+0 0  9994",
        "tle_line2": "2 38250  55.9274 311.4423 0024462 273.7300  85.9745  1.86229694 92310"
      },
      "geometry": {
        "type": "Point",
        "coordinates": [
          -24.757889580499842,
          30.9115917103502
        ]
      }
    },
    {
      "type": "Feature",
      "properties": {
        "norad_id": 38251,
        "name": "BEIDOU-2 M4 (C12)",
        "group": "gnss",
        "lat": 55.33660243985987,
        "lon": 29.668367352130492,
        "alt_km": 21564.215032213546,
        "timestamp": "2025-12-06T11:28:11.305609+00:00",
        "meta_object_name": "BEIDOU-2 M4 (C12)",
        "meta_object_id": "2012-018B",
        "meta_epoch": "2025-12-05T06:41:27.869856",
        "meta_mean_motion": 1.86229397,
        "meta_eccentricity": 0.00155808,
        "meta_inclination": 55.8281,
        "meta_ra_of_asc_node": 310.638,
        "meta_arg_of_pericenter": 277.012,
        "meta_mean_anomaly": 82.7935,
        "meta_ephemeris_type": 0,
        "meta_classification_type": "U",
        "meta_norad_cat_id": 38251,
        "meta_element_set_no": 999,
        "meta_rev_at_epoch": 9233,
        "meta_bstar": 0,
        "meta_mean_motion_dot": -6.9e-07,
        "meta_mean_motion_ddot": 0,
        "tle_line1": "1 38251U 12018B   25339.27879479 -.00000069  00000+0  00000+0 0  9990",
        "tle_line2": "2 38251  55.8281 310.6380 0015580 277.0120  82.7935  1.86229397 92337"
      },
      "geometry": {
        "type": "Point",
        "coordinates": [
          29.668367352130492,
          55.33660243985987
        ]
      }
    },
    {
      "type": "Feature",
      "properties": {
        "norad_id": 38652,
        "name": "SES-5 (EGNOS/PRN 136)",
        "group": "gnss",
        "lat": -0.06796442151782751,
        "lon": -107.4763547367644,
        "alt_km": 35777.45353536862,
        "timestamp": "2025-12-06T11:28:11.305624+00:00",
        "meta_object_name": "SES-5 (EGNOS/PRN 136)",
        "meta_object_id": "2012-036A",
        "meta_epoch": "2025-12-05T22:16:52.430304",
        "meta_mean_motion": 1.00269861,
        "meta_eccentricity": 0.0002159,
        "meta_inclination": 0.0571,
        "meta_ra_of_asc_node": 305.0247,
        "meta_arg_of_pericenter": 310.0463,
        "meta_mean_anomaly": 159.0993,
        "meta_ephemeris_type": 0,
        "meta_classification_type": "U",
        "meta_norad_cat_id": 38652,
        "meta_element_set_no": 999,
        "meta_rev_at_epoch": 4252,
        "meta_bstar": 0,
        "meta_mean_motion_dot": 4.3e-07,
        "meta_mean_motion_ddot": 0,
        "tle_line1": "1 38652U 12036A   25339.92838461  .00000043  00000+0  00000+0 0  9994",
        "tle_line2": "2 38652   0.0571 305.0247 0002159 310.0463 159.0993  1.00269861 42526"
      },
      "geometry": {
        "type": "Point",
        "coordinates": [
          -107.4763547367644,
          -0.06796442151782751
        ]
      }
    },
    {
      "type": "Feature",
      "properties": {
        "norad_id": 38775,
        "name": "BEIDOU-2 M6 (C14)",
        "group": "gnss",
        "lat": -55.64776215236391,
        "lon": -7.161353257649336,
        "alt_km": 21523.040253642775,
        "timestamp": "2025-12-06T11:28:11.305636+00:00",
        "meta_object_name": "BEIDOU-2 M6 (C14)",
        "meta_object_id": "2012-050B",
        "meta_epoch": "2025-12-03T09:05:34.856160",
        "meta_mean_motion": 1.86230686,
        "meta_eccentricity": 0.00108899,
        "meta_inclination": 56.3706,
        "meta_ra_of_asc_node": 69.3782,
        "meta_arg_of_pericenter": 346.3356,
        "meta_mean_anomaly": 13.638,
        "meta_ephemeris_type": 0,
        "meta_classification_type": "U",
        "meta_norad_cat_id": 38775,
        "meta_element_set_no": 999,
        "meta_rev_at_epoch": 8966,
        "meta_bstar": 0,
        "meta_mean_motion_dot": -5e-07,
        "meta_mean_motion_ddot": 0,
        "tle_line1": "1 38775U 12050B   25337.37887565 -.00000050  00000+0  00000+0 0  9991",
        "tle_line2": "2 38775  56.3706  69.3782 0010889 346.3356  13.6380  1.86230686 89660"
      },
      "geometry": {
        "type": "Point",
        "coordinates": [
          -7.161353257649336,
          -55.64776215236391
        ]
      }
    },
    {
      "type": "Feature",
      "properties": {
        "norad_id": 38779,
        "name": "GSAT-10 (GAGAN/PRN 128)",
        "group": "gnss",
        "lat": 0.01951416679802749,
        "lon": -29.487288337757114,
        "alt_km": 35794.44200456272,
        "timestamp": "2025-12-06T11:28:11.305648+00:00",
        "meta_object_name": "GSAT-10 (GAGAN/PRN 128)",
        "meta_object_id": "2012-051B",
        "meta_epoch": "2025-12-05T22:31:38.798400",
        "meta_mean_motion": 1.00274676,
        "meta_eccentricity": 0.00022942,
        "meta_inclination": 0.0255,
        "meta_ra_of_asc_node": 263.1417,
        "meta_arg_of_pericenter": 229.0247,
        "meta_mean_anomaly": 3.6942,
        "meta_ephemeris_type": 0,
        "meta_classification_type": "U",
        "meta_norad_cat_id": 38779,
        "meta_element_set_no": 999,
        "meta_rev_at_epoch": 4816,
        "meta_bstar": 0,
        "meta_mean_motion_dot": -1.56e-06,
        "meta_mean_motion_ddot": 0,
        "tle_line1": "1 38779U 12051B   25339.93864350 -.00000156  00000+0  00000+0 0  9994",
        "tle_line2": "2 38779   0.0255 263.1417 0002294 229.0247   3.6942  1.00274676 48161"
      },
      "geometry": {
        "type": "Point",
        "coordinates": [
          -29.487288337757114,
          0.01951416679802749
        ]
      }
    },
    {
      "type": "Feature",
      "properties": {
        "norad_id": 38833,
        "name": "GPS BIIF-3  (PRN 24)",
        "group": "gnss",
        "lat": 52.47567393673816,
        "lon": -134.23964071623206,
        "alt_km": 19728.257562246014,
        "timestamp": "2025-12-06T11:28:11.305662+00:00",
        "meta_object_name": "GPS BIIF-3  (PRN 24)",
        "meta_object_id": "2012-053A",
        "meta_epoch": "2025-12-04T20:58:35.662368",
        "meta_mean_motion": 2.00564858,
        "meta_eccentricity": 0.0175571,
        "meta_inclination": 53.5563,
        "meta_ra_of_asc_node": 151.5608,
        "meta_arg_of_pericenter": 63.8805,
        "meta_mean_anomaly": 297.9293,
        "meta_ephemeris_type": 0,
        "meta_classification_type": "U",
        "meta_norad_cat_id": 38833,
        "meta_element_set_no": 999,
        "meta_rev_at_epoch": 9554,
        "meta_bstar": 0,
        "meta_mean_motion_dot": 7.4e-07,
        "meta_mean_motion_ddot": 0,
        "tle_line1": "1 38833U 12053A   25338.87402387  .00000074  00000+0  00000+0 0  9995",
        "tle_line2": "2 38833  53.5563 151.5608 0175571  63.8805 297.9293  2.00564858 95548"
      },
      "geometry": {
        "type": "Point",
        "coordinates": [
          -134.23964071623206,
          52.47567393673816
        ]
      }
    }
  ]
}